[ {
  "OBJECT_ID": "1970-008B",
  "OBJECT_NAME": "OSCAR 5",
  "NORAD_CAT_ID": "4321",
  "OBJECT_TYPE": "PAYLOAD",
  "PERIOD": "115.000",
  "INCLINATION": "101.7935",
  "APOGEE": "1477.238",
  "PERIGEE": "1433.636",
  "ECCENTRICITY": "0.002783",
  "MEAN_MOTION": "12.52169028",
  "TLE_LINE1": "1  4321U 70008B   16238.86481512 -.00000053 +00000-0 -48884-4 0  9996",
  "TLE_LINE2": "2  4321 101.7935 303.0551 0027830 019.2264 044.1349 12.52169028129079",
  "LAUNCH_DATE": "1970-01-23",
  "LAUNCH_SITE": "AIR FORCE WESTERN TEST RANGE",
  "OWNER": "AUSTRALIA",
  "ORBIT_TYPE": "Low Earth Orbit",
  "OPERATIONAL_STATUS": "Nonoperational"
}, {
  "OBJECT_ID": "1970-012A",
  "OBJECT_NAME": "OPS 0054 (DMSP 5A F1)",
  "NORAD_CAT_ID": "4331",
  "OBJECT_TYPE": "PAYLOAD",
  "PERIOD": "100.517",
  "INCLINATION": "98.9986",
  "APOGEE": "825.446",
  "PERIGEE": "740.782",
  "ECCENTRICITY": "0.0059113",
  "MEAN_MOTION": "14.32582227",
  "TLE_LINE1": "1  4331U 70012A   16238.92958226 +.00000018 +00000-0 +23651-4 0  9994",
  "TLE_LINE2": "2  4331 098.9986 265.8871 0059113 015.2044 345.0898 14.32582227424085",
  "LAUNCH_DATE": "1970-02-11",
  "LAUNCH_SITE": "AIR FORCE WESTERN TEST RANGE",
  "OWNER": "UNITED STATES OF AMERICA",
  "ORBIT_TYPE": "Low Earth Orbit",
  "OPERATIONAL_STATUS": "Nonoperational"
}, {
  "OBJECT_ID": "1970-025A",
  "OBJECT_NAME": "NIMBUS 4",
  "NORAD_CAT_ID": "4362",
  "OBJECT_TYPE": "PAYLOAD",
  "PERIOD": "107.096",
  "INCLINATION": "100.0353",
  "APOGEE": "1098.443",
  "PERIGEE": "1086.105",
  "ECCENTRICITY": "0.0008258",
  "MEAN_MOTION": "13.44578495",
  "TLE_LINE1": "1  4362U 70025A   16238.84444091 -.00000038 +00000-0 +11761-4 0  9995",
  "TLE_LINE2": "2  4362 100.0353 138.2966 0008258 082.8688 317.9181 13.44578495275393",
  "LAUNCH_DATE": "1970-04-08",
  "LAUNCH_SITE": "AIR FORCE WESTERN TEST RANGE",
  "OWNER": "UNITED STATES OF AMERICA",
  "ORBIT_TYPE": "Low Earth Orbit",
  "OPERATIONAL_STATUS": "Nonoperational"
}, {
  "OBJECT_ID": "1970-070A",
  "OBJECT_NAME": "OPS 0203 (DMSP 5A F2)",
  "NORAD_CAT_ID": "4512",
  "OBJECT_TYPE": "PAYLOAD",
  "PERIOD": "100.383",
  "INCLINATION": "98.9253",
  "APOGEE": "823.239",
  "PERIGEE": "730.253",
  "ECCENTRICITY": "0.0064981",
  "MEAN_MOTION": "14.34495275",
  "TLE_LINE1": "1 04512U 70070A   16239.50117218  .00000060  00000-0  36829-4 0  9990",
  "TLE_LINE2": "2 04512  98.9253  19.7779 0064981 157.5411 202.8641 14.34495275398357",
  "LAUNCH_DATE": "1970-09-03",
  "LAUNCH_SITE": "AIR FORCE WESTERN TEST RANGE",
  "OWNER": "UNITED STATES OF AMERICA",
  "ORBIT_TYPE": "Low Earth Orbit",
  "OPERATIONAL_STATUS": "Nonoperational"
}, {
  "OBJECT_ID": "1970-106A",
  "OBJECT_NAME": "NOAA 1",
  "NORAD_CAT_ID": "4793",
  "OBJECT_TYPE": "PAYLOAD",
  "PERIOD": "114.834",
  "INCLINATION": "101.8485",
  "APOGEE": "1473.216",
  "PERIGEE": "1422.588",
  "ECCENTRICITY": "0.0032346",
  "MEAN_MOTION": "12.53977855",
  "TLE_LINE1": "1 04793U 70106A   16239.29719425 -.00000064  00000-0 -11301-3 0  9998",
  "TLE_LINE2": "2 04793 101.8485 299.3013 0032346 105.2754 289.9253 12.53977855 92192",
  "LAUNCH_DATE": "1970-12-11",
  "LAUNCH_SITE": "AIR FORCE WESTERN TEST RANGE",
  "OWNER": "UNITED STATES OF AMERICA",
  "ORBIT_TYPE": "Low Earth Orbit",
  "OPERATIONAL_STATUS": "Nonoperational"
}, {
  "OBJECT_ID": "1971-011A",
  "OBJECT_NAME": "TANSEI 1 (MS-T1)",
  "NORAD_CAT_ID": "4952",
  "OBJECT_TYPE": "PAYLOAD",
  "PERIOD": "106.002",
  "INCLINATION": "29.6675",
  "APOGEE": "1100.511",
  "PERIGEE": "982.067",
  "ECCENTRICITY": "0.007982",
  "MEAN_MOTION": "13.58461753",
  "TLE_LINE1": "1 04952U 71011A   16238.58710514  .00000094  00000-0  36190-4 0  9997",
  "TLE_LINE2": "2 04952  29.6675 295.4227 0079820 269.1947 246.0932 13.58461753261516",
  "LAUNCH_DATE": "1971-02-16",
  "LAUNCH_SITE": "KAGOSHIMA SPACE CENTER UNIVERSITY OF TOKYO",
  "OWNER": "JAPAN",
  "ORBIT_TYPE": "Low Earth Orbit",
  "OPERATIONAL_STATUS": "Nonoperational"
}, {
  "OBJECT_ID": "1971-012A",
  "OBJECT_NAME": "OPS 5268 (DMSP 5A F3)",
  "NORAD_CAT_ID": "4953",
  "OBJECT_TYPE": "PAYLOAD",
  "PERIOD": "99.987",
  "INCLINATION": "98.5479",
  "APOGEE": "784.882",
  "PERIGEE": "730.935",
  "ECCENTRICITY": "0.0037799",
  "MEAN_MOTION": "14.40179115",
  "TLE_LINE1": "1 04953U 71012A   16239.49276002  .00000056  00000-0  31475-4 0  9998",
  "TLE_LINE2": "2 04953  98.5479  29.4047 0037799 331.8444  28.0699 14.40179115383464",
  "LAUNCH_DATE": "1971-02-17",
  "LAUNCH_SITE": "AIR FORCE WESTERN TEST RANGE",
  "OWNER": "UNITED STATES OF AMERICA",
  "ORBIT_TYPE": "Low Earth Orbit",
  "OPERATIONAL_STATUS": "Nonoperational"
}, {
  "OBJECT_ID": "1971-080A",
  "OBJECT_NAME": "SHINSEI (MS-F2)",
  "NORAD_CAT_ID": "5485",
  "OBJECT_TYPE": "PAYLOAD",
  "PERIOD": "113.019",
  "INCLINATION": "32.0528",
  "APOGEE": "1861.026",
  "PERIGEE": "869.393",
  "ECCENTRICITY": "0.0640313",
  "MEAN_MOTION": "12.74118483",
  "TLE_LINE1": "1  5485U 71080A   16238.95146599 +.00000046 +00000-0 +56427-4 0  9994",
  "TLE_LINE2": "2  5485 032.0528 121.1454 0640313 116.8987 249.8481 12.74118483092162",
  "LAUNCH_DATE": "1971-09-28",
  "LAUNCH_SITE": "KAGOSHIMA SPACE CENTER UNIVERSITY OF TOKYO",
  "OWNER": "JAPAN",
  "ORBIT_TYPE": "Low Earth Orbit",
  "OPERATIONAL_STATUS": "Nonoperational"
}, {
  "OBJECT_ID": "1971-087A",
  "OBJECT_NAME": "OPS 4311 (DMSP 5B F1)",
  "NORAD_CAT_ID": "5557",
  "OBJECT_TYPE": "PAYLOAD",
  "PERIOD": "100.911",
  "INCLINATION": "99.0154",
  "APOGEE": "838.951",
  "PERIGEE": "764.688",
  "ECCENTRICITY": "0.0051715",
  "MEAN_MOTION": "14.26987517",
  "TLE_LINE1": "1 05557U 71087A   16238.73061106  .00000016  00000-0  25271-4 0  9997",
  "TLE_LINE2": "2 05557  99.0154 148.2381 0051715 157.6158 202.7294 14.26987517329629",
  "LAUNCH_DATE": "1971-10-14",
  "LAUNCH_SITE": "AIR FORCE WESTERN TEST RANGE",
  "OWNER": "UNITED STATES OF AMERICA",
  "ORBIT_TYPE": "Low Earth Orbit",
  "OPERATIONAL_STATUS": "Nonoperational"
}, {
  "OBJECT_ID": "1972-018A",
  "OBJECT_NAME": "OPS 5058 (DMSP 5B F2)",
  "NORAD_CAT_ID": "5903",
  "OBJECT_TYPE": "PAYLOAD",
  "PERIOD": "101.126",
  "INCLINATION": "99.0316",
  "APOGEE": "848.469",
  "PERIGEE": "775.522",
  "ECCENTRICITY": "0.0050727",
  "MEAN_MOTION": "14.23959217",
  "TLE_LINE1": "1 05903U 72018A   16238.74907569 -.00000003  00000-0  19108-4 0  9999",
  "TLE_LINE2": "2 05903  99.0316 292.4197 0050727 320.0914  39.6538 14.23959217380470",
  "LAUNCH_DATE": "1972-03-24",
  "LAUNCH_SITE": "AIR FORCE WESTERN TEST RANGE",
  "OWNER": "UNITED STATES OF AMERICA",
  "ORBIT_TYPE": "Low Earth Orbit",
  "OPERATIONAL_STATUS": "Nonoperational"
}, {
  "OBJECT_ID": "1972-058A",
  "OBJECT_NAME": "LANDSAT 1 (ERTS 1)",
  "NORAD_CAT_ID": "6126",
  "OBJECT_TYPE": "PAYLOAD",
  "PERIOD": "103.040",
  "INCLINATION": "99.0178",
  "APOGEE": "907.874",
  "PERIGEE": "897.026",
  "ECCENTRICITY": "0.000745",
  "MEAN_MOTION": "13.97504878",
  "TLE_LINE1": "1  6126U 72058A   16238.83936700 -.00000224 +00000-0 -12824-3 0  9993",
  "TLE_LINE2": "2  6126 099.0178 190.9485 0007450 321.8142 038.2492 13.97504878247557",
  "LAUNCH_DATE": "1972-07-23",
  "LAUNCH_SITE": "AIR FORCE WESTERN TEST RANGE",
  "OWNER": "UNITED STATES OF AMERICA",
  "ORBIT_TYPE": "Low Earth Orbit",
  "OPERATIONAL_STATUS": "Nonoperational"
}, {
  "OBJECT_ID": "1972-082A",
  "OBJECT_NAME": "NOAA 2 (ITOS-D)",
  "NORAD_CAT_ID": "6235",
  "OBJECT_TYPE": "PAYLOAD",
  "PERIOD": "114.916",
  "INCLINATION": "101.6322",
  "APOGEE": "1454.418",
  "PERIGEE": "1448.817",
  "ECCENTRICITY": "0.0003577",
  "MEAN_MOTION": "12.53085447",
  "TLE_LINE1": "1 06235U 72082A   16239.49472574 -.00000011  00000-0  20765-3 0  9994",
  "TLE_LINE2": "2 06235 101.6322 204.0258 0003577 192.1362 278.6480 12.53085447  6538",
  "LAUNCH_DATE": "1972-10-15",
  "LAUNCH_SITE": "AIR FORCE WESTERN TEST RANGE",
  "OWNER": "UNITED STATES OF AMERICA",
  "ORBIT_TYPE": "Low Earth Orbit",
  "OPERATIONAL_STATUS": "Nonoperational"
}, {
  "OBJECT_ID": "1972-082B",
  "OBJECT_NAME": "OSCAR 6",
  "NORAD_CAT_ID": "6236",
  "OBJECT_TYPE": "PAYLOAD",
  "PERIOD": "114.912",
  "INCLINATION": "101.6599",
  "APOGEE": "1454.598",
  "PERIGEE": "1448.247",
  "ECCENTRICITY": "0.0004056",
  "MEAN_MOTION": "12.53132205",
  "TLE_LINE1": "1 06236U 72082B   16239.52118284 -.00000027  00000-0  11046-3 0  9993",
  "TLE_LINE2": "2 06236 101.6599 203.4337 0004056 163.4052 310.1163 12.53132205  6496",
  "LAUNCH_DATE": "1972-10-15",
  "LAUNCH_SITE": "AIR FORCE WESTERN TEST RANGE",
  "OWNER": "UNITED STATES OF AMERICA",
  "ORBIT_TYPE": "Low Earth Orbit",
  "OPERATIONAL_STATUS": "Nonoperational"
}, {
  "OBJECT_ID": "1972-089A",
  "OBJECT_NAME": "OPS 7323 (DMSP 5B F3)",
  "NORAD_CAT_ID": "6275",
  "OBJECT_TYPE": "PAYLOAD",
  "PERIOD": "100.864",
  "INCLINATION": "98.5978",
  "APOGEE": "825.898",
  "PERIGEE": "773.233",
  "ECCENTRICITY": "0.0036686",
  "MEAN_MOTION": "14.27659778",
  "TLE_LINE1": "1 06275U 72089A   16239.57025425  .00000042  00000-0  34407-4 0  9995",
  "TLE_LINE2": "2 06275  98.5978  91.1387 0036686  48.4109 312.0206 14.27659778273655",
  "LAUNCH_DATE": "1972-11-09",
  "LAUNCH_SITE": "AIR FORCE WESTERN TEST RANGE",
  "OWNER": "UNITED STATES OF AMERICA",
  "ORBIT_TYPE": "Low Earth Orbit",
  "OPERATIONAL_STATUS": "Nonoperational"
}, {
  "OBJECT_ID": "1972-097A",
  "OBJECT_NAME": "NIMBUS 5",
  "NORAD_CAT_ID": "6305",
  "OBJECT_TYPE": "PAYLOAD",
  "PERIOD": "107.134",
  "INCLINATION": "100.0177",
  "APOGEE": "1099.776",
  "PERIGEE": "1088.267",
  "ECCENTRICITY": "0.0007701",
  "MEAN_MOTION": "13.44106866",
  "TLE_LINE1": "1  6305U 72097A   16238.81322689 -.00000040 +00000-0 +90905-5 0  9991",
  "TLE_LINE2": "2  6305 100.0177 138.3258 0007701 242.4259 158.7738 13.44106866143449",
  "LAUNCH_DATE": "1972-12-11",
  "LAUNCH_SITE": "AIR FORCE WESTERN TEST RANGE",
  "OWNER": "UNITED STATES OF AMERICA",
  "ORBIT_TYPE": "Low Earth Orbit",
  "OPERATIONAL_STATUS": "Nonoperational"
}]